{
  "type": "FeatureCollection",
  "features": [
    {
      "type": "Feature",
      "properties": {
        "norad_id": 35038,
        "name": "COSMOS 2251 DEB",
        "group": "cosmos-2251-debris",
        "lat": -63.026871689372356,
        "lon": 1.5078826469896027,
        "alt_km": 808.3324079269141,
        "timestamp": "2025-12-16T15:45:51.441752+00:00",
        "meta_object_name": "COSMOS 2251 DEB",
        "meta_object_id": "1993-036AHB",
        "meta_epoch": "2025-12-15T13:49:36.990048",
        "meta_mean_motion": 14.25163813,
        "meta_eccentricity": 0.0114051,
        "meta_inclination": 74.1077,
        "meta_ra_of_asc_node": 37.4893,
        "meta_arg_of_pericenter": 20.4917,
        "meta_mean_anomaly": 130.3996,
        "meta_ephemeris_type": 0,
        "meta_classification_type": "U",
        "meta_norad_cat_id": 35038,
        "meta_element_set_no": 999,
        "meta_rev_at_epoch": 85609,
        "meta_bstar": 0.00092650629,
        "meta_mean_motion_dot": 2.304e-05,
        "meta_mean_motion_ddot": 0,
        "tle_line1": "1 35038U 93036AHB 25349.57612257  .00002304  00000+0  92651-3 0  9992",
        "tle_line2": "2 35038  74.1077  37.4893 0114051  20.4917 130.3996 14.25163813856099"
      },
      "geometry": {
        "type": "Point",
        "coordinates": [
          1.5078826469896027,
          -63.026871689372356
        ]
      }
    },
    {
      "type": "Feature",
      "properties": {
        "norad_id": 35043,
        "name": "COSMOS 2251 DEB",
        "group": "cosmos-2251-debris",
        "lat": 34.87186055596543,
        "lon": -153.71859022444661,
        "alt_km": 650.3686047452511,
        "timestamp": "2025-12-16T15:45:51.441762+00:00",
        "meta_object_name": "COSMOS 2251 DEB",
        "meta_object_id": "1993-036AHG",
        "meta_epoch": "2025-12-15T19:36:09.229536",
        "meta_mean_motion": 14.77121808,
        "meta_eccentricity": 0.00962449,
        "meta_inclination": 73.9502,
        "meta_ra_of_asc_node": 39.5099,
        "meta_arg_of_pericenter": 248.3461,
        "meta_mean_anomaly": 110.7443,
        "meta_ephemeris_type": 0,
        "meta_classification_type": "U",
        "meta_norad_cat_id": 35043,
        "meta_element_set_no": 999,
        "meta_rev_at_epoch": 67464,
        "meta_bstar": 0.0021635766,
        "meta_mean_motion_dot": 0.00016517,
        "meta_mean_motion_ddot": 0,
        "tle_line1": "1 35043U 93036AHG 25349.81677349  .00016517  00000+0  21636-2 0  9993",
        "tle_line2": "2 35043  73.9502  39.5099 0096244 248.3461 110.7443 14.77121808674647"
      },
      "geometry": {
        "type": "Point",
        "coordinates": [
          -153.71859022444661,
          34.87186055596543
        ]
      }
    },
    {
      "type": "Feature",
      "properties": {
        "norad_id": 35045,
        "name": "COSMOS 2251 DEB",
        "group": "cosmos-2251-debris",
        "lat": -26.677603286946166,
        "lon": 37.343176718007555,
        "alt_km": 802.0075226430326,
        "timestamp": "2025-12-16T15:45:51.441786+00:00",
        "meta_object_name": "COSMOS 2251 DEB",
        "meta_object_id": "1993-036AHJ",
        "meta_epoch": "2025-12-15T10:44:56.343840",
        "meta_mean_motion": 14.00391051,
        "meta_eccentricity": 0.01837483,
        "meta_inclination": 73.7197,
        "meta_ra_of_asc_node": 47.9208,
        "meta_arg_of_pericenter": 289.5539,
        "meta_mean_anomaly": 68.5833,
        "meta_ephemeris_type": 0,
        "meta_classification_type": "U",
        "meta_norad_cat_id": 35045,
        "meta_element_set_no": 999,
        "meta_rev_at_epoch": 84681,
        "meta_bstar": 0.00065789188,
        "meta_mean_motion_dot": 1.1e-05,
        "meta_mean_motion_ddot": 0,
        "tle_line1": "1 35045U 93036AHJ 25349.44787435  .00001100  00000+0  65789-3 0  9992",
        "tle_line2": "2 35045  73.7197  47.9208 0183748 289.5539  68.5833 14.00391051846819"
      },
      "geometry": {
        "type": "Point",
        "coordinates": [
          37.343176718007555,
          -26.677603286946166
        ]
      }
    },
    {
      "type": "Feature",
      "properties": {
        "norad_id": 35060,
        "name": "COSMOS 2251 DEB",
        "group": "cosmos-2251-debris",
        "lat": 72.03487056411825,
        "lon": -4.904417488830131,
        "alt_km": 755.365353783639,
        "timestamp": "2025-12-16T15:45:51.441798+00:00",
        "meta_object_name": "COSMOS 2251 DEB",
        "meta_object_id": "1993-036AHP",
        "meta_epoch": "2025-12-12T09:42:56.373696",
        "meta_mean_motion": 14.4159863,
        "meta_eccentricity": 0.00185395,
        "meta_inclination": 74.0367,
        "meta_ra_of_asc_node": 244.9485,
        "meta_arg_of_pericenter": 331.3845,
        "meta_mean_anomaly": 28.6291,
        "meta_ephemeris_type": 0,
        "meta_classification_type": "U",
        "meta_norad_cat_id": 35060,
        "meta_element_set_no": 999,
        "meta_rev_at_epoch": 87237,
        "meta_bstar": 0.00047553365,
        "meta_mean_motion_dot": 1.524e-05,
        "meta_mean_motion_ddot": 0,
        "tle_line1": "1 35060U 93036AHP 25346.40481914  .00001524  00000+0  47553-3 0  9994",
        "tle_line2": "2 35060  74.0367 244.9485 0018539 331.3845  28.6291 14.41598630872378"
      },
      "geometry": {
        "type": "Point",
        "coordinates": [
          -4.904417488830131,
          72.03487056411825
        ]
      }
    },
    {
      "type": "Feature",
      "properties": {
        "norad_id": 35061,
        "name": "COSMOS 2251 DEB",
        "group": "cosmos-2251-debris",
        "lat": -8.135842775100643,
        "lon": -64.18456429057522,
        "alt_km": 656.1371470982576,
        "timestamp": "2025-12-16T15:45:51.441808+00:00",
        "meta_object_name": "COSMOS 2251 DEB",
        "meta_object_id": "1993-036AHQ",
        "meta_epoch": "2025-12-15T13:37:52.272768",
        "meta_mean_motion": 14.67853586,
        "meta_eccentricity": 0.0039196,
        "meta_inclination": 74.0455,
        "meta_ra_of_asc_node": 300.2612,
        "meta_arg_of_pericenter": 50.2977,
        "meta_mean_anomaly": 310.1637,
        "meta_ephemeris_type": 0,
        "meta_classification_type": "U",
        "meta_norad_cat_id": 35061,
        "meta_element_set_no": 999,
        "meta_rev_at_epoch": 88616,
        "meta_bstar": 0.00055386301,
        "meta_mean_motion_dot": 3.17e-05,
        "meta_mean_motion_ddot": 0,
        "tle_line1": "1 35061U 93036AHQ 25349.56796612  .00003170  00000+0  55386-3 0  9991",
        "tle_line2": "2 35061  74.0455 300.2612 0039196  50.2977 310.1637 14.67853586886167"
      },
      "geometry": {
        "type": "Point",
        "coordinates": [
          -64.18456429057522,
          -8.135842775100643
        ]
      }
    },
    {
      "type": "Feature",
      "properties": {
        "norad_id": 35062,
        "name": "COSMOS 2251 DEB",
        "group": "cosmos-2251-debris",
        "lat": 40.742173842690896,
        "lon": -108.00857035615691,
        "alt_km": 754.6251527886525,
        "timestamp": "2025-12-16T15:45:51.441819+00:00",
        "meta_object_name": "COSMOS 2251 DEB",
        "meta_object_id": "1993-036AHR",
        "meta_epoch": "2025-12-10T15:42:45.436320",
        "meta_mean_motion": 14.22906612,
        "meta_eccentricity": 0.01275957,
        "meta_inclination": 74.0784,
        "meta_ra_of_asc_node": 96.9836,
        "meta_arg_of_pericenter": 97.3041,
        "meta_mean_anomaly": 264.2628,
        "meta_ephemeris_type": 0,
        "meta_classification_type": "U",
        "meta_norad_cat_id": 35062,
        "meta_element_set_no": 999,
        "meta_rev_at_epoch": 85469,
        "meta_bstar": 0.0028656551,
        "meta_mean_motion_dot": 6.986e-05,
        "meta_mean_motion_ddot": 0,
        "tle_line1": "1 35062U 93036AHR 25344.65469255  .00006986  00000+0  28657-2 0  9995",
        "tle_line2": "2 35062  74.0784  96.9836 0127595  97.3041 264.2628 14.22906612854697"
      },
      "geometry": {
        "type": "Point",
        "coordinates": [
          -108.00857035615691,
          40.742173842690896
        ]
      }
    },
    {
      "type": "Feature",
      "properties": {
        "norad_id": 35065,
        "name": "COSMOS 2251 DEB",
        "group": "cosmos-2251-debris",
        "lat": 34.37657926380439,
        "lon": -4.281345977708134,
        "alt_km": 750.8570999658059,
        "timestamp": "2025-12-16T15:45:51.441829+00:00",
        "meta_object_name": "COSMOS 2251 DEB",
        "meta_object_id": "1993-036AHU",
        "meta_epoch": "2025-12-15T07:32:45.576096",
        "meta_mean_motion": 14.45733893,
        "meta_eccentricity": 0.00199052,
        "meta_inclination": 74.019,
        "meta_ra_of_asc_node": 189.5298,
        "meta_arg_of_pericenter": 314.3681,
        "meta_mean_anomaly": 45.5846,
        "meta_ephemeris_type": 0,
        "meta_classification_type": "U",
        "meta_norad_cat_id": 35065,
        "meta_element_set_no": 999,
        "meta_rev_at_epoch": 68388,
        "meta_bstar": 0.00034144119,
        "meta_mean_motion_dot": 1.186e-05,
        "meta_mean_motion_ddot": 0,
        "tle_line1": "1 35065U 93036AHU 25349.31441639  .00001186  00000+0  34144-3 0  9998",
        "tle_line2": "2 35065  74.0190 189.5298 0019905 314.3681  45.5846 14.45733893683886"
      },
      "geometry": {
        "type": "Point",
        "coordinates": [
          -4.281345977708134,
          34.37657926380439
        ]
      }
    }
  ]
}